[{"OBJECT_NAME":"ONEWEB-0509","OBJECT_ID":"2022-138Q","EPOCH":"2026-06-19T21:31:54.039936","MEAN_MOTION":13.19725652,"ECCENTRICITY":0.0001736,"INCLINATION":87.9183,"RA_OF_ASC_NODE":304.4248,"ARG_OF_PERICENTER":101.6345,"MEAN_ANOMALY":258.4983,"EPHEMERIS_TYPE":0,"CLASSIFICATION_TYPE":"U","NORAD_CAT_ID":54127,"ELEMENT_SET_NO":999,"REV_AT_EPOCH":17716,"BSTAR":0.00010046,"MEAN_MOTION_DOT":5.3e-07,"MEAN_MOTION_DDOT":0.0},{"OBJECT_NAME":"ONEWEB-0510","OBJECT_ID":"2022-138R","EPOCH":"2026-06-20T05:42:47.151072","MEAN_MOTION":13.20773094,"ECCENTRICITY":0.0002389,"INCLINATION":87.9199,"RA_OF_ASC_NODE":273.8279,"ARG_OF_PERICENTER":93.8708,"MEAN_ANOMALY":266.2699,"EPHEMERIS_TYPE":0,"CLASSIFICATION_TYPE":"U","NORAD_CAT_ID":54128,"ELEMENT_SET_NO":999,"REV_AT_EPOCH":17968,"BSTAR":0.00021922,"MEAN_MOTION_DOT":1.02e-06,"MEAN_MOTION_DDOT":0.0},{"OBJECT_NAME":"ONEWEB-0511","OBJECT_ID":"2022-138S","EPOCH":"2026-06-19T21:27:21.598272","MEAN_MOTION":13.19726114,"ECCENTRICITY":0.0001684,"INCLINATION":87.918,"RA_OF_ASC_NODE":304.428,"ARG_OF_PERICENTER":91.6438,"MEAN_ANOMALY":268.4888,"EPHEMERIS_TYPE":0,"CLASSIFICATION_TYPE":"U","NORAD_CAT_ID":54129,"ELEMENT_SET_NO":999,"REV_AT_EPOCH":17719,"BSTAR":3.5007e-05,"MEAN_MOTION_DOT":2.7e-07,"MEAN_MOTION_DDOT":0.0},{"OBJECT_NAME":"ONEWEB-0512","OBJECT_ID":"2022-138T","EPOCH":"2026-06-19T21:15:58.918176","MEAN_MOTION":13.19725442,"ECCENTRICITY":0.0001536,"INCLINATION":87.917,"RA_OF_ASC_NODE":304.4344,"ARG_OF_PERICENTER":98.387,"MEAN_ANOMALY":261.7437,"EPHEMERIS_TYPE":0,"CLASSIFICATION_TYPE":"U","NORAD_CAT_ID":54130,"ELEMENT_SET_NO":999,"REV_AT_EPOCH":17716,"BSTAR":0.00012556999999999998,"MEAN_MOTION_DOT":6.3e-07,"MEAN_MOTION_DDOT":0.0},{"OBJECT_NAME":"ONEWEB-0513","OBJECT_ID":"2022-138U","EPOCH":"2026-06-20T06:28:07.629600","MEAN_MOTION":13.20268497,"ECCENTRICITY":0.0001006,"INCLINATION":87.9181,"RA_OF_ASC_NODE":304.3019,"ARG_OF_PERICENTER":81.1137,"MEAN_ANOMALY":279.011,"EPHEMERIS_TYPE":0,"CLASSIFICATION_TYPE":"U","NORAD_CAT_ID":54131,"ELEMENT_SET_NO":999,"REV_AT_EPOCH":17712,"BSTAR":0.00014802,"MEAN_MOTION_DOT":7.3e-07,"MEAN_MOTION_DDOT":0.0},{"OBJECT_NAME":"ONEWEB-0514","OBJECT_ID":"2022-138V","EPOCH":"2026-06-20T06:44:36.648672","MEAN_MOTION":13.19724959,"ECCENTRICITY":0.0001989,"INCLINATION":87.9183,"RA_OF_ASC_NODE":304.35,"ARG_OF_PERICENTER":96.7672,"MEAN_ANOMALY":263.3687,"EPHEMERIS_TYPE":0,"CLASSIFICATION_TYPE":"U","NORAD_CAT_ID":54132,"ELEMENT_SET_NO":999,"REV_AT_EPOCH":17723,"BSTAR":1.1708e-05,"MEAN_MOTION_DOT":1.8e-07,"MEAN_MOTION_DDOT":0.0},{"OBJECT_NAME":"ONEWEB-0515","OBJECT_ID":"2022-138W","EPOCH":"2026-06-20T07:12:29.048544","MEAN_MOTION":13.20770791,"ECCENTRICITY":0.000279,"INCLINATION":87.9202,"RA_OF_ASC_NODE":273.8102,"ARG_OF_PERICENTER":107.7794,"MEAN_ANOMALY":252.3644,"EPHEMERIS_TYPE":0,"CLASSIFICATION_TYPE":"U","NORAD_CAT_ID":54133,"ELEMENT_SET_NO":999,"REV_AT_EPOCH":17971,"BSTAR":0.00021601999999999998,"MEAN_MOTION_DOT":1.01e-06,"MEAN_MOTION_DDOT":0.0},{"OBJECT_NAME":"ONEWEB-0516","OBJECT_ID":"2022-138X","EPOCH":"2026-06-19T21:02:19.735584","MEAN_MOTION":13.19725233,"ECCENTRICITY":0.0001867,"INCLINATION":87.9171,"RA_OF_ASC_NODE":304.4366,"ARG_OF_PERICENTER":104.1159,"MEAN_ANOMALY":256.0182,"EPHEMERIS_TYPE":0,"CLASSIFICATION_TYPE":"U","NORAD_CAT_ID":54134,"ELEMENT_SET_NO":999,"REV_AT_EPOCH":17718,"BSTAR":2.4952e-05,"MEAN_MOTION_DOT":2.3e-07,"MEAN_MOTION_DDOT":0.0},{"OBJECT_NAME":"ONEWEB-0517","OBJECT_ID":"2022-138Y","EPOCH":"2026-06-20T07:27:49.618944","MEAN_MOTION":13.1972528,"ECCENTRICITY":0.0001908,"INCLINATION":87.918,"RA_OF_ASC_NODE":304.3425,"ARG_OF_PERICENTER":89.91,"MEAN_ANOMALY":270.2251,"EPHEMERIS_TYPE":0,"CLASSIFICATION_TYPE":"U","NORAD_CAT_ID":54135,"ELEMENT_SET_NO":999,"REV_AT_EPOCH":17724,"BSTAR":0.00029981,"MEAN_MOTION_DOT":1.33e-06,"MEAN_MOTION_DDOT":0.0},{"OBJECT_NAME":"ONEWEB-0518","OBJECT_ID":"2022-138Z","EPOCH":"2026-06-19T21:00:04.464288","MEAN_MOTION":13.19727781,"ECCENTRICITY":0.0001888,"INCLINATION":87.9171,"RA_OF_ASC_NODE":304.4388,"ARG_OF_PERICENTER":105.6413,"MEAN_ANOMALY":254.4928,"EPHEMERIS_TYPE":0,"CLASSIFICATION_TYPE":"U","NORAD_CAT_ID":54136,"ELEMENT_SET_NO":999,"REV_AT_EPOCH":17718,"BSTAR":0.00011990000000000001,"MEAN_MOTION_DOT":6.1e-07,"MEAN_MOTION_DDOT":0.0},{"OBJECT_NAME":"ONEWEB-0519","OBJECT_ID":"2022-138AA","EPOCH":"2026-06-19T21:36:27.569376","MEAN_MOTION":13.19726547,"ECCENTRICITY":0.0001888,"INCLINATION":87.9184,"RA_OF_ASC_NODE":304.4253,"ARG_OF_PERICENTER":92.9854,"MEAN_ANOMALY":267.1495,"EPHEMERIS_TYPE":0,"CLASSIFICATION_TYPE":"U","NORAD_CAT_ID":54137,"ELEMENT_SET_NO":999,"REV_AT_EPOCH":17719,"BSTAR":-9.8527e-05,"MEAN_MOTION_DOT":-2.6e-07,"MEAN_MOTION_DDOT":0.0},{"OBJECT_NAME":"ONEWEB-0520","OBJECT_ID":"2022-138AB","EPOCH":"2026-06-19T22:26:30.249312","MEAN_MOTION":13.19724992,"ECCENTRICITY":0.0001642,"INCLINATION":87.9181,"RA_OF_ASC_NODE":304.4185,"ARG_OF_PERICENTER":103.8776,"MEAN_ANOMALY":256.254,"EPHEMERIS_TYPE":0,"CLASSIFICATION_TYPE":"U","NORAD_CAT_ID":54138,"ELEMENT_SET_NO":999,"REV_AT_EPOCH":17718,"BSTAR":8.883900000000001e-05,"MEAN_MOTION_DOT":4.9e-07,"MEAN_MOTION_DDOT":0.0},{"OBJECT_NAME":"ONEWEB-0521","OBJECT_ID":"2022-138AC","EPOCH":"2026-06-20T02:52:36.613344","MEAN_MOTION":13.19724963,"ECCENTRICITY":0.000192,"INCLINATION":87.9183,"RA_OF_ASC_NODE":304.3703,"ARG_OF_PERICENTER":92.4753,"MEAN_ANOMALY":267.6599,"EPHEMERIS_TYPE":0,"CLASSIFICATION_TYPE":"U","NORAD_CAT_ID":54139,"ELEMENT_SET_NO":999,"REV_AT_EPOCH":17715,"BSTAR":-2.9485000000000003e-05,"MEAN_MOTION_DOT":1e-08,"MEAN_MOTION_DDOT":0.0},{"OBJECT_NAME":"ONEWEB-0522","OBJECT_ID":"2022-138AD","EPOCH":"2026-06-19T20:55:31.270080","MEAN_MOTION":13.19724698,"ECCENTRICITY":0.0001714,"INCLINATION":87.9183,"RA_OF_ASC_NODE":304.4221,"ARG_OF_PERICENTER":100.181,"MEAN_ANOMALY":259.9516,"EPHEMERIS_TYPE":0,"CLASSIFICATION_TYPE":"U","NORAD_CAT_ID":54140,"ELEMENT_SET_NO":999,"REV_AT_EPOCH":17716,"BSTAR":9.247600000000001e-05,"MEAN_MOTION_DOT":5e-07,"MEAN_MOTION_DDOT":0.0},{"OBJECT_NAME":"ONEWEB-0523","OBJECT_ID":"2022-138AE","EPOCH":"2026-06-20T06:53:05.116992","MEAN_MOTION":13.20771596,"ECCENTRICITY":0.0002789,"INCLINATION":87.9198,"RA_OF_ASC_NODE":273.8226,"ARG_OF_PERICENTER":96.0062,"MEAN_ANOMALY":264.1389,"EPHEMERIS_TYPE":0,"CLASSIFICATION_TYPE":"U","NORAD_CAT_ID":54141,"ELEMENT_SET_NO":999,"REV_AT_EPOCH":17971,"BSTAR":0.00010952000000000001,"MEAN_MOTION_DOT":5.8e-07,"MEAN_MOTION_DDOT":0.0},{"OBJECT_NAME":"ONEWEB-0524","OBJECT_ID":"2022-138AF","EPOCH":"2026-06-20T06:38:32.682624","MEAN_MOTION":13.20771476,"ECCENTRICITY":0.0002715,"INCLINATION":87.9197,"RA_OF_ASC_NODE":273.8217,"ARG_OF_PERICENTER":113.4251,"MEAN_ANOMALY":246.7168,"EPHEMERIS_TYPE":0,"CLASSIFICATION_TYPE":"U","NORAD_CAT_ID":54142,"ELEMENT_SET_NO":999,"REV_AT_EPOCH":17971,"BSTAR":8.87e-05,"MEAN_MOTION_DOT":4.9e-07,"MEAN_MOTION_DDOT":0.0},{"OBJECT_NAME":"ONEWEB-0525","OBJECT_ID":"2022-138AG","EPOCH":"2026-06-19T21:22:48.086976","MEAN_MOTION":13.19724745,"ECCENTRICITY":0.0001617,"INCLINATION":87.918,"RA_OF_ASC_NODE":304.4258,"ARG_OF_PERICENTER":109.0124,"MEAN_ANOMALY":251.1184,"EPHEMERIS_TYPE":0,"CLASSIFICATION_TYPE":"U","NORAD_CAT_ID":54143,"ELEMENT_SET_NO":999,"REV_AT_EPOCH":17718,"BSTAR":-9.8478e-05,"MEAN_MOTION_DOT":-2.6e-07,"MEAN_MOTION_DDOT":0.0},{"OBJECT_NAME":"ONEWEB-0526","OBJECT_ID":"2022-138AH","EPOCH":"2026-06-20T07:16:26.781600","MEAN_MOTION":13.19726388,"ECCENTRICITY":0.0001827,"INCLINATION":87.9184,"RA_OF_ASC_NODE":304.3443,"ARG_OF_PERICENTER":103.7262,"MEAN_ANOMALY":256.4074,"EPHEMERIS_TYPE":0,"CLASSIFICATION_TYPE":"U","NORAD_CAT_ID":54144,"ELEMENT_SET_NO":999,"REV_AT_EPOCH":17721,"BSTAR":0.00012953999999999998,"MEAN_MOTION_DOT":6.5e-07,"MEAN_MOTION_DDOT":0.0},{"OBJECT_NAME":"ONEWEB-0529","OBJECT_ID":"2022-138AJ","EPOCH":"2026-06-20T07:21:00.227232","MEAN_MOTION":13.19724705,"ECCENTRICITY":0.0001683,"INCLINATION":87.9174,"RA_OF_ASC_NODE":304.3524,"ARG_OF_PERICENTER":104.5173,"MEAN_ANOMALY":255.6147,"EPHEMERIS_TYPE":0,"CLASSIFICATION_TYPE":"U","NORAD_CAT_ID":54145,"ELEMENT_SET_NO":999,"REV_AT_EPOCH":17723,"BSTAR":2.7425e-05,"MEAN_MOTION_DOT":2.4e-07,"MEAN_MOTION_DDOT":0.0},{"OBJECT_NAME":"ONEWEB-0531","OBJECT_ID":"2022-138AK","EPOCH":"2026-06-20T06:19:09.566688","MEAN_MOTION":13.20771736,"ECCENTRICITY":0.0002865,"INCLINATION":87.9195,"RA_OF_ASC_NODE":273.8219,"ARG_OF_PERICENTER":101.0608,"MEAN_ANOMALY":259.0848,"EPHEMERIS_TYPE":0,"CLASSIFICATION_TYPE":"U","NORAD_CAT_ID":54146,"ELEMENT_SET_NO":999,"REV_AT_EPOCH":17971,"BSTAR":-5.7821999999999996e-05,"MEAN_MOTION_DOT":-1.1e-07,"MEAN_MOTION_DDOT":0.0},{"OBJECT_NAME":"ONEWEB-0535","OBJECT_ID":"2022-138AL","EPOCH":"2026-06-19T21:13:42.184992","MEAN_MOTION":13.19725344,"ECCENTRICITY":0.0002153,"INCLINATION":87.918,"RA_OF_ASC_NODE":304.421,"ARG_OF_PERICENTER":94.6326,"MEAN_ANOMALY":265.5052,"EPHEMERIS_TYPE":0,"CLASSIFICATION_TYPE":"U","NORAD_CAT_ID":54147,"ELEMENT_SET_NO":999,"REV_AT_EPOCH":17719,"BSTAR":2.2257e-05,"MEAN_MOTION_DOT":2.2e-07,"MEAN_MOTION_DDOT":0.0},{"OBJECT_NAME":"ONEWEB-0536","OBJECT_ID":"2022-138AM","EPOCH":"2026-06-20T05:59:45.318912","MEAN_MOTION":13.2077125,"ECCENTRICITY":0.0002996,"INCLINATION":87.9185,"RA_OF_ASC_NODE":273.8469,"ARG_OF_PERICENTER":104.1007,"MEAN_ANOMALY":256.046,"EPHEMERIS_TYPE":0,"CLASSIFICATION_TYPE":"U","NORAD_CAT_ID":54148,"ELEMENT_SET_NO":999,"REV_AT_EPOCH":17970,"BSTAR":0.00015751,"MEAN_MOTION_DOT":7.7e-07,"MEAN_MOTION_DDOT":0.0},{"OBJECT_NAME":"ONEWEB-0527","OBJECT_ID":"2022-166A","EPOCH":"2026-06-20T04:54:27.723456","MEAN_MOTION":13.21823458,"ECCENTRICITY":0.0001988,"INCLINATION":87.9249,"RA_OF_ASC_NODE":243.397,"ARG_OF_PERICENTER":100.1273,"MEAN_ANOMALY":260.0085,"EPHEMERIS_TYPE":0,"CLASSIFICATION_TYPE":"U","NORAD_CAT_ID":54642,"ELEMENT_SET_NO":999,"REV_AT_EPOCH":17193,"BSTAR":-4.7374000000000004e-05,"MEAN_MOTION_DOT":-7e-08,"MEAN_MOTION_DDOT":0.0}]